{"fetched_at":"2026-04-01T16:59:04Z","count":11445,"tles":[{"name":"STARLINK-37205","line1":"1 68332U 26059M   26090.66668981  .00007990  00000+0  43990-4 0  9994","line2":"2 68332  53.1594 252.6552 0001094  83.5801 172.0491 15.80869969  2576","category":"Starlink"}]}